{
  "type": "FeatureCollection",
  "features": [
    {
      "type": "Feature",
      "properties": {
        "data_source": "OpenStreetMap/Overpass tiled",
        "buildings_loaded": 11539,
        "map_features_loaded": 16000,
        "map_tiles_loaded": 110,
        "map_tile_zoom": 15,
        "area_km2": 131.29,
        "max_building_height_m": 195.3,
        "grid": "300x275x26",
        "blocked_cells": 44143,
        "obstacle_density": 0.0206,
        "path_found": true,
        "path_points": 233,
        "path_cost_m": 12544.0,
        "nodes_expanded": 251654,
        "search_time_ms": 10379.43,
        "planned_altitude_m": 80.0,
        "safety_clearance_m": 20.0,
        "initial_battery_pct": 100.0
      },
      "geometry": {
        "type": "LineString",
        "coordinates": [
          [
            106.7856607,
            10.8478548,
            85.0
          ],
          [
            106.7852948,
            10.8474955,
            85.0
          ],
          [
            106.784929,
            10.8471362,
            85.0
          ],
          [
            106.7845632,
            10.8467769,
            85.0
          ],
          [
            106.7841974,
            10.8464175,
            85.0
          ],
          [
            106.7838316,
            10.8460582,
            85.0
          ],
          [
            106.7834658,
            10.8456989,
            85.0
          ],
          [
            106.7831,
            10.8453396,
            85.0
          ],
          [
            106.7827341,
            10.8449802,
            85.0
          ],
          [
            106.7823683,
            10.8446209,
            85.0
          ],
          [
            106.7820025,
            10.8442616,
            85.0
          ],
          [
            106.7816367,
            10.8439023,
            85.0
          ],
          [
            106.7812709,
            10.8435429,
            85.0
          ],
          [
            106.7809051,
            10.8431836,
            85.0
          ],
          [
            106.7805392,
            10.8428243,
            85.0
          ],
          [
            106.7801734,
            10.842465,
            85.0
          ],
          [
            106.7798076,
            10.8421056,
            85.0
          ],
          [
            106.7794418,
            10.8417463,
            85.0
          ],
          [
            106.779076,
            10.841387,
            85.0
          ],
          [
            106.7787102,
            10.8410277,
            85.0
          ],
          [
            106.7783444,
            10.8406683,
            85.0
          ],
          [
            106.7779785,
            10.840309,
            85.0
          ],
          [
            106.7776127,
            10.8399497,
            85.0
          ],
          [
            106.7772469,
            10.8395904,
            85.0
          ],
          [
            106.7768811,
            10.839231,
            85.0
          ],
          [
            106.7765153,
            10.8388717,
            85.0
          ],
          [
            106.7761495,
            10.8385124,
            85.0
          ],
          [
            106.7757836,
            10.8381531,
            85.0
          ],
          [
            106.7754178,
            10.8377937,
            85.0
          ],
          [
            106.775052,
            10.8374344,
            85.0
          ],
          [
            106.7746862,
            10.8370751,
            85.0
          ],
          [
            106.7743204,
            10.8367158,
            85.0
          ],
          [
            106.7739546,
            10.8363564,
            85.0
          ],
          [
            106.7735888,
            10.8359971,
            85.0
          ],
          [
            106.7732229,
            10.8356378,
            85.0
          ],
          [
            106.7728571,
            10.8352785,
            85.0
          ],
          [
            106.7724913,
            10.8349192,
            85.0
          ],
          [
            106.7721255,
            10.8345598,
            85.0
          ],
          [
            106.7717597,
            10.8342005,
            85.0
          ],
          [
            106.7713939,
            10.8338412,
            85.0
          ],
          [
            106.7710281,
            10.8334819,
            85.0
          ],
          [
            106.7706622,
            10.8331225,
            85.0
          ],
          [
            106.7702964,
            10.8327632,
            85.0
          ],
          [
            106.7699306,
            10.8324039,
            85.0
          ],
          [
            106.7695648,
            10.8320446,
            85.0
          ],
          [
            106.769199,
            10.8316852,
            85.0
          ],
          [
            106.7688332,
            10.8313259,
            85.0
          ],
          [
            106.7684673,
            10.8309666,
            85.0
          ],
          [
            106.7681015,
            10.8306073,
            85.0
          ],
          [
            106.7677357,
            10.8302479,
            85.0
          ],
          [
            106.7673699,
            10.8298886,
            85.0
          ],
          [
            106.7670041,
            10.8295293,
            85.0
          ],
          [
            106.7666383,
            10.82917,
            85.0
          ],
          [
            106.7662725,
            10.8288106,
            85.0
          ],
          [
            106.7659066,
            10.8284513,
            85.0
          ],
          [
            106.7655408,
            10.828092,
            85.0
          ],
          [
            106.765175,
            10.8277327,
            85.0
          ],
          [
            106.7648092,
            10.8273733,
            85.0
          ],
          [
            106.7644434,
            10.827014,
            85.0
          ],
          [
            106.7640776,
            10.8266547,
            85.0
          ],
          [
            106.7637117,
            10.8262954,
            85.0
          ],
          [
            106.7633459,
            10.825936,
            85.0
          ],
          [
            106.7629801,
            10.8255767,
            85.0
          ],
          [
            106.7626143,
            10.8252174,
            85.0
          ],
          [
            106.7622485,
            10.8248581,
            85.0
          ],
          [
            106.7618827,
            10.8244987,
            85.0
          ],
          [
            106.7615169,
            10.8241394,
            85.0
          ],
          [
            106.761151,
            10.8237801,
            85.0
          ],
          [
            106.7607852,
            10.8234208,
            85.0
          ],
          [
            106.7604194,
            10.8230614,
            85.0
          ],
          [
            106.7600536,
            10.8227021,
            85.0
          ],
          [
            106.7596878,
            10.8223428,
            85.0
          ],
          [
            106.759322,
            10.8219835,
            85.0
          ],
          [
            106.7589562,
            10.8216241,
            85.0
          ],
          [
            106.7585903,
            10.8212648,
            85.0
          ],
          [
            106.7582245,
            10.8209055,
            85.0
          ],
          [
            106.7578587,
            10.8205462,
            85.0
          ],
          [
            106.7574929,
            10.8201868,
            85.0
          ],
          [
            106.7571271,
            10.8198275,
            85.0
          ],
          [
            106.7567613,
            10.8194682,
            85.0
          ],
          [
            106.7563954,
            10.8191089,
            85.0
          ],
          [
            106.7560296,
            10.8187496,
            85.0
          ],
          [
            106.7556638,
            10.8183902,
            85.0
          ],
          [
            106.755298,
            10.8180309,
            85.0
          ],
          [
            106.7549322,
            10.8176716,
            85.0
          ],
          [
            106.7545664,
            10.8173123,
            85.0
          ],
          [
            106.7542006,
            10.8169529,
            85.0
          ],
          [
            106.7538347,
            10.8165936,
            85.0
          ],
          [
            106.7534689,
            10.8162343,
            85.0
          ],
          [
            106.7531031,
            10.815875,
            85.0
          ],
          [
            106.7527373,
            10.8155156,
            85.0
          ],
          [
            106.7523715,
            10.8151563,
            85.0
          ],
          [
            106.7520057,
            10.814797,
            85.0
          ],
          [
            106.7516398,
            10.8144377,
            85.0
          ],
          [
            106.751274,
            10.8140783,
            85.0
          ],
          [
            106.7509082,
            10.813719,
            85.0
          ],
          [
            106.7505424,
            10.8133597,
            85.0
          ],
          [
            106.7501766,
            10.8130004,
            85.0
          ],
          [
            106.7498108,
            10.812641,
            85.0
          ],
          [
            106.749445,
            10.8122817,
            85.0
          ],
          [
            106.7490791,
            10.8119224,
            85.0
          ],
          [
            106.7487133,
            10.8115631,
            85.0
          ],
          [
            106.7483475,
            10.8112037,
            85.0
          ],
          [
            106.7479817,
            10.8108444,
            85.0
          ],
          [
            106.7476159,
            10.8104851,
            85.0
          ],
          [
            106.7472501,
            10.8101258,
            85.0
          ],
          [
            106.7468843,
            10.8097664,
            85.0
          ],
          [
            106.7465184,
            10.8094071,
            85.0
          ],
          [
            106.7461526,
            10.8090478,
            85.0
          ],
          [
            106.7457868,
            10.8086885,
            85.0
          ],
          [
            106.745421,
            10.8083291,
            85.0
          ],
          [
            106.7450552,
            10.8079698,
            85.0
          ],
          [
            106.7446894,
            10.8076105,
            85.0
          ],
          [
            106.7443235,
            10.8072512,
            85.0
          ],
          [
            106.7439577,
            10.8068918,
            85.0
          ],
          [
            106.7435919,
            10.8065325,
            85.0
          ],
          [
            106.7432261,
            10.8061732,
            85.0
          ],
          [
            106.7428603,
            10.8058139,
            85.0
          ],
          [
            106.7424945,
            10.8054545,
            85.0
          ],
          [
            106.7421287,
            10.8050952,
            85.0
          ],
          [
            106.7417628,
            10.8047359,
            85.0
          ],
          [
            106.741397,
            10.8043766,
            85.0
          ],
          [
            106.7410312,
            10.8040172,
            85.0
          ],
          [
            106.7406654,
            10.8036579,
            85.0
          ],
          [
            106.7402996,
            10.8036579,
            85.0
          ],
          [
            106.7399338,
            10.8036579,
            85.0
          ],
          [
            106.739568,
            10.8032986,
            85.0
          ],
          [
            106.7392021,
            10.8029393,
            85.0
          ],
          [
            106.7388363,
            10.8025799,
            85.0
          ],
          [
            106.7384705,
            10.8022206,
            85.0
          ],
          [
            106.7381047,
            10.8018613,
            85.0
          ],
          [
            106.7377389,
            10.801502,
            85.0
          ],
          [
            106.7373731,
            10.8011427,
            85.0
          ],
          [
            106.7370072,
            10.8007833,
            85.0
          ],
          [
            106.7366414,
            10.800424,
            85.0
          ],
          [
            106.7362756,
            10.8000647,
            85.0
          ],
          [
            106.7359098,
            10.7997054,
            85.0
          ],
          [
            106.735544,
            10.799346,
            85.0
          ],
          [
            106.7351782,
            10.7989867,
            85.0
          ],
          [
            106.7348124,
            10.7986274,
            85.0
          ],
          [
            106.7344465,
            10.7982681,
            85.0
          ],
          [
            106.7340807,
            10.7979087,
            85.0
          ],
          [
            106.7337149,
            10.7975494,
            85.0
          ],
          [
            106.7333491,
            10.7971901,
            85.0
          ],
          [
            106.7329833,
            10.7968308,
            85.0
          ],
          [
            106.7326175,
            10.7964714,
            85.0
          ],
          [
            106.7322516,
            10.7961121,
            85.0
          ],
          [
            106.7318858,
            10.7957528,
            85.0
          ],
          [
            106.73152,
            10.7953935,
            85.0
          ],
          [
            106.7311542,
            10.7950341,
            85.0
          ],
          [
            106.7307884,
            10.7946748,
            85.0
          ],
          [
            106.7304226,
            10.7943155,
            85.0
          ],
          [
            106.7300568,
            10.7939562,
            85.0
          ],
          [
            106.7296909,
            10.7935968,
            85.0
          ],
          [
            106.7293251,
            10.7932375,
            85.0
          ],
          [
            106.7289593,
            10.7928782,
            85.0
          ],
          [
            106.7285935,
            10.7925189,
            85.0
          ],
          [
            106.7282277,
            10.7921595,
            85.0
          ],
          [
            106.7278619,
            10.7918002,
            85.0
          ],
          [
            106.7274961,
            10.7914409,
            85.0
          ],
          [
            106.7271302,
            10.7910816,
            85.0
          ],
          [
            106.7267644,
            10.7907222,
            85.0
          ],
          [
            106.7263986,
            10.7903629,
            85.0
          ],
          [
            106.7260328,
            10.7900036,
            85.0
          ],
          [
            106.725667,
            10.7896443,
            85.0
          ],
          [
            106.7253012,
            10.7892849,
            85.0
          ],
          [
            106.7249353,
            10.7889256,
            85.0
          ],
          [
            106.7245695,
            10.7885663,
            85.0
          ],
          [
            106.7242037,
            10.788207,
            85.0
          ],
          [
            106.7238379,
            10.7878476,
            85.0
          ],
          [
            106.7234721,
            10.7874883,
            85.0
          ],
          [
            106.7231063,
            10.787129,
            85.0
          ],
          [
            106.7227405,
            10.7867697,
            85.0
          ],
          [
            106.7223746,
            10.7867697,
            85.0
          ],
          [
            106.7220088,
            10.7864103,
            85.0
          ],
          [
            106.721643,
            10.7864103,
            85.0
          ],
          [
            106.7212772,
            10.786051,
            85.0
          ],
          [
            106.7209114,
            10.786051,
            85.0
          ],
          [
            106.7205456,
            10.786051,
            85.0
          ],
          [
            106.7201797,
            10.7856917,
            85.0
          ],
          [
            106.7198139,
            10.7856917,
            85.0
          ],
          [
            106.7194481,
            10.7853324,
            85.0
          ],
          [
            106.7190823,
            10.7853324,
            85.0
          ],
          [
            106.7187165,
            10.7849731,
            85.0
          ],
          [
            106.7183507,
            10.7849731,
            85.0
          ],
          [
            106.7179849,
            10.7846137,
            85.0
          ],
          [
            106.717619,
            10.7846137,
            85.0
          ],
          [
            106.7172532,
            10.7842544,
            85.0
          ],
          [
            106.7168874,
            10.7842544,
            85.0
          ],
          [
            106.7165216,
            10.7842544,
            85.0
          ],
          [
            106.7161558,
            10.7838951,
            85.0
          ],
          [
            106.71579,
            10.7838951,
            85.0
          ],
          [
            106.7154242,
            10.7835358,
            85.0
          ],
          [
            106.7150583,
            10.7835358,
            85.0
          ],
          [
            106.7146925,
            10.7831764,
            85.0
          ],
          [
            106.7143267,
            10.7831764,
            85.0
          ],
          [
            106.7139609,
            10.7828171,
            85.0
          ],
          [
            106.7135951,
            10.7828171,
            85.0
          ],
          [
            106.7132293,
            10.7824578,
            85.0
          ],
          [
            106.7128634,
            10.7824578,
            85.0
          ],
          [
            106.7124976,
            10.7824578,
            85.0
          ],
          [
            106.7121318,
            10.7820985,
            85.0
          ],
          [
            106.711766,
            10.7820985,
            85.0
          ],
          [
            106.7114002,
            10.7817391,
            85.0
          ],
          [
            106.7110344,
            10.7817391,
            85.0
          ],
          [
            106.7106686,
            10.7813798,
            85.0
          ],
          [
            106.7103027,
            10.7813798,
            85.0
          ],
          [
            106.7099369,
            10.7810205,
            85.0
          ],
          [
            106.7095711,
            10.7810205,
            85.0
          ],
          [
            106.7092053,
            10.7806612,
            85.0
          ],
          [
            106.7088395,
            10.7806612,
            85.0
          ],
          [
            106.7084737,
            10.7803018,
            85.0
          ],
          [
            106.7081078,
            10.7799425,
            85.0
          ],
          [
            106.707742,
            10.7795832,
            85.0
          ],
          [
            106.7073762,
            10.7792239,
            85.0
          ],
          [
            106.7070104,
            10.7792239,
            85.0
          ],
          [
            106.7066446,
            10.7792239,
            85.0
          ],
          [
            106.7062788,
            10.7792239,
            85.0
          ],
          [
            106.705913,
            10.7792239,
            85.0
          ],
          [
            106.7055471,
            10.7792239,
            85.0
          ],
          [
            106.7051813,
            10.7788645,
            85.0
          ],
          [
            106.7048155,
            10.7788645,
            85.0
          ],
          [
            106.7044497,
            10.7788645,
            85.0
          ],
          [
            106.7040839,
            10.7785052,
            85.0
          ],
          [
            106.7037181,
            10.7785052,
            85.0
          ],
          [
            106.7033523,
            10.7781459,
            85.0
          ],
          [
            106.7029864,
            10.7781459,
            85.0
          ],
          [
            106.7026206,
            10.7777866,
            85.0
          ],
          [
            106.7022548,
            10.7777866,
            85.0
          ],
          [
            106.701889,
            10.7774272,
            85.0
          ],
          [
            106.7015232,
            10.7774272,
            85.0
          ],
          [
            106.7011574,
            10.7770679,
            85.0
          ],
          [
            106.7007915,
            10.7770679,
            85.0
          ]
        ]
      }
    }
  ]
}